STARLINK-36108          
1 66868U 25281W   25357.83334491 -.01989703  00000+0 -26838-1 0  9995
2 66868  43.0000  54.7855 0001143 275.0231 341.4957 15.60411939  3012
STARLINK-36092          
1 66869U 25281X   25357.83334491 -.01989350  00000+0 -26832-1 0  9998
2 66869  43.0002  54.7808 0001151 273.3643 345.0704 15.60412658  3200
STARLINK-36114          
1 66870U 25281Y   25357.83334491 -.01989092  00000+0 -26826-1 0  9996
2 66870  42.9999  54.7758 0001348 270.5455 349.8085 15.60412255  3079
STARLINK-36095          
1 66871U 25281Z   25357.83334491 -.01989810  00000+0 -26837-1 0  9997
2 66871  43.0001  54.7704 0001185 272.3829 349.8863 15.60413463  3202
STARLINK-36082          
1 66872U 25281AA  25357.83334491 -.01982543  00000+0 -26730-1 0  9996
2 66872  43.0000  54.7660 0001200 272.8384 351.3486 15.60409185  3072
STARLINK-36128          
1 66873U 25281AB  25357.83334491 -.02017079  00000+0 -27240-1 0  9998
2 66873  43.0001  54.7491 0001295 270.0841 359.8506 15.60429056  3208
STARLINK-36129          
1 66874U 25281AC  25357.83334491 -.02007917  00000+0 -27105-1 0  9999
2 66874  43.0002  54.7595 0001165 267.9191 358.1818 15.60424586  3205
STARLINK-36053          
1 66875U 25281AD  25357.83334491 -.02008898  00000+0 -27121-1 0  9997
2 66875  43.0004  54.7436 0001355 276.9045 354.9497 15.60421998  3202
STARLINK-35702          
1 66876U 25281AE  25357.83334491 -.02007572  00000+0 -27097-1 0  9998
2 66876  43.0001  54.7544 0001513 272.1594 355.8585 15.60423052  3204
ZQ-3 R/B                
1 66877U 25282A   25357.75778637  .01092378  78754-5  18879-3 0  9997
2 66877  56.9493  14.7741 0685556 239.3958 113.7744 14.82080967  3016
STARLINK-35866          
1 66878U 25283A   25357.83334491 -.01944347  00000+0 -19524-1 0  9997
2 66878  53.1592  18.3973 0001017  77.6199 288.1991 15.67931447  4213
STARLINK-35749          
1 66879U 25283B   25357.83334491 -.01943604  00000+0 -19515-1 0  9993
2 66879  53.1590  18.3890 0001051  77.1688 292.4839 15.67931160  4217
