CCSDS_OMM_VERS = 2.0
CREATION_DATE  = 
ORIGINATOR     = 

OBJECT_NAME    = STARLINK-36108
OBJECT_ID      = 2025-281W
CENTER_NAME    = EARTH
REF_FRAME      = TEME
TIME_SYSTEM    = UTC
MEAN_ELEMENT_THEORY = SGP/SGP4

EPOCH          = 2025-12-23T20:00:01.000224
MEAN_MOTION    = 15.60411939
ECCENTRICITY   = .0001143
INCLINATION    = 43.0000
RA_OF_ASC_NODE = 54.7855
ARG_OF_PERICENTER = 275.0231
MEAN_ANOMALY   = 341.4957

EPHEMERIS_TYPE = 0
CLASSIFICATION_TYPE = U
NORAD_CAT_ID   = 66868
ELEMENT_SET_NO = 999
REV_AT_EPOCH   = 301
BSTAR          = -.26838E-1
MEAN_MOTION_DOT = -.1989703E-1
MEAN_MOTION_DDOT = 0

CCSDS_OMM_VERS = 2.0
CREATION_DATE  = 
ORIGINATOR     = 

OBJECT_NAME    = STARLINK-36092
OBJECT_ID      = 2025-281X
CENTER_NAME    = EARTH
REF_FRAME      = TEME
TIME_SYSTEM    = UTC
MEAN_ELEMENT_THEORY = SGP/SGP4

EPOCH          = 2025-12-23T20:00:01.000224
MEAN_MOTION    = 15.60412658
ECCENTRICITY   = .0001151
INCLINATION    = 43.0002
RA_OF_ASC_NODE = 54.7808
ARG_OF_PERICENTER = 273.3643
MEAN_ANOMALY   = 345.0704

EPHEMERIS_TYPE = 0
CLASSIFICATION_TYPE = U
NORAD_CAT_ID   = 66869
ELEMENT_SET_NO = 999
REV_AT_EPOCH   = 320
BSTAR          = -.26832E-1
MEAN_MOTION_DOT = -.198935E-1
MEAN_MOTION_DDOT = 0

CCSDS_OMM_VERS = 2.0
CREATION_DATE  = 
ORIGINATOR     = 

OBJECT_NAME    = STARLINK-36114
OBJECT_ID      = 2025-281Y
CENTER_NAME    = EARTH
REF_FRAME      = TEME
TIME_SYSTEM    = UTC
MEAN_ELEMENT_THEORY = SGP/SGP4

EPOCH          = 2025-12-23T20:00:01.000224
MEAN_MOTION    = 15.60412255
ECCENTRICITY   = .0001348
INCLINATION    = 42.9999
RA_OF_ASC_NODE = 54.7758
ARG_OF_PERICENTER = 270.5455
MEAN_ANOMALY   = 349.8085

EPHEMERIS_TYPE = 0
CLASSIFICATION_TYPE = U
NORAD_CAT_ID   = 66870
ELEMENT_SET_NO = 999
REV_AT_EPOCH   = 307
BSTAR          = -.26826E-1
MEAN_MOTION_DOT = -.1989092E-1
MEAN_MOTION_DDOT = 0

CCSDS_OMM_VERS = 2.0
CREATION_DATE  = 
ORIGINATOR     = 

OBJECT_NAME    = STARLINK-36095
OBJECT_ID      = 2025-281Z
CENTER_NAME    = EARTH
REF_FRAME      = TEME
TIME_SYSTEM    = UTC
MEAN_ELEMENT_THEORY = SGP/SGP4

EPOCH          = 2025-12-23T20:00:01.000224
MEAN_MOTION    = 15.60413463
ECCENTRICITY   = .0001185
INCLINATION    = 43.0001
RA_OF_ASC_NODE = 54.7704
ARG_OF_PERICENTER = 272.3829
MEAN_ANOMALY   = 349.8863

EPHEMERIS_TYPE = 0
CLASSIFICATION_TYPE = U
NORAD_CAT_ID   = 66871
ELEMENT_SET_NO = 999
REV_AT_EPOCH   = 320
BSTAR          = -.26837E-1
MEAN_MOTION_DOT = -.198981E-1
MEAN_MOTION_DDOT = 0

CCSDS_OMM_VERS = 2.0
CREATION_DATE  = 
ORIGINATOR     = 

OBJECT_NAME    = STARLINK-36082
OBJECT_ID      = 2025-281AA
CENTER_NAME    = EARTH
REF_FRAME      = TEME
TIME_SYSTEM    = UTC
MEAN_ELEMENT_THEORY = SGP/SGP4

EPOCH          = 2025-12-23T20:00:01.000224
MEAN_MOTION    = 15.60409185
ECCENTRICITY   = .00012
INCLINATION    = 43.0000
RA_OF_ASC_NODE = 54.7660
ARG_OF_PERICENTER = 272.8384
MEAN_ANOMALY   = 351.3486

EPHEMERIS_TYPE = 0
CLASSIFICATION_TYPE = U
NORAD_CAT_ID   = 66872
ELEMENT_SET_NO = 999
REV_AT_EPOCH   = 307
BSTAR          = -.2673E-1
MEAN_MOTION_DOT = -.1982543E-1
MEAN_MOTION_DDOT = 0

CCSDS_OMM_VERS = 2.0
CREATION_DATE  = 
ORIGINATOR     = 

OBJECT_NAME    = STARLINK-36128
OBJECT_ID      = 2025-281AB
CENTER_NAME    = EARTH
REF_FRAME      = TEME
TIME_SYSTEM    = UTC
MEAN_ELEMENT_THEORY = SGP/SGP4

EPOCH          = 2025-12-23T20:00:01.000224
MEAN_MOTION    = 15.60429056
ECCENTRICITY   = .0001295
INCLINATION    = 43.0001
RA_OF_ASC_NODE = 54.7491
ARG_OF_PERICENTER = 270.0841
MEAN_ANOMALY   = 359.8506

EPHEMERIS_TYPE = 0
CLASSIFICATION_TYPE = U
NORAD_CAT_ID   = 66873
ELEMENT_SET_NO = 999
REV_AT_EPOCH   = 320
BSTAR          = -.2724E-1
MEAN_MOTION_DOT = -.2017079E-1
MEAN_MOTION_DDOT = 0

CCSDS_OMM_VERS = 2.0
CREATION_DATE  = 
ORIGINATOR     = 

OBJECT_NAME    = STARLINK-36129
OBJECT_ID      = 2025-281AC
CENTER_NAME    = EARTH
REF_FRAME      = TEME
TIME_SYSTEM    = UTC
MEAN_ELEMENT_THEORY = SGP/SGP4

EPOCH          = 2025-12-23T20:00:01.000224
MEAN_MOTION    = 15.60424586
ECCENTRICITY   = .0001165
INCLINATION    = 43.0002
RA_OF_ASC_NODE = 54.7595
ARG_OF_PERICENTER = 267.9191
MEAN_ANOMALY   = 358.1818

EPHEMERIS_TYPE = 0
CLASSIFICATION_TYPE = U
NORAD_CAT_ID   = 66874
ELEMENT_SET_NO = 999
REV_AT_EPOCH   = 320
BSTAR          = -.27105E-1
MEAN_MOTION_DOT = -.2007917E-1
MEAN_MOTION_DDOT = 0

CCSDS_OMM_VERS = 2.0
CREATION_DATE  = 
ORIGINATOR     = 

OBJECT_NAME    = STARLINK-36053
OBJECT_ID      = 2025-281AD
CENTER_NAME    = EARTH
REF_FRAME      = TEME
TIME_SYSTEM    = UTC
MEAN_ELEMENT_THEORY = SGP/SGP4

EPOCH          = 2025-12-23T20:00:01.000224
MEAN_MOTION    = 15.60421998
ECCENTRICITY   = .0001355
INCLINATION    = 43.0004
RA_OF_ASC_NODE = 54.7436
ARG_OF_PERICENTER = 276.9045
MEAN_ANOMALY   = 354.9497

EPHEMERIS_TYPE = 0
CLASSIFICATION_TYPE = U
NORAD_CAT_ID   = 66875
ELEMENT_SET_NO = 999
REV_AT_EPOCH   = 320
BSTAR          = -.27121E-1
MEAN_MOTION_DOT = -.2008898E-1
MEAN_MOTION_DDOT = 0

CCSDS_OMM_VERS = 2.0
CREATION_DATE  = 
ORIGINATOR     = 

OBJECT_NAME    = STARLINK-35702
OBJECT_ID      = 2025-281AE
CENTER_NAME    = EARTH
REF_FRAME      = TEME
TIME_SYSTEM    = UTC
MEAN_ELEMENT_THEORY = SGP/SGP4

EPOCH          = 2025-12-23T20:00:01.000224
MEAN_MOTION    = 15.60423052
ECCENTRICITY   = .0001513
INCLINATION    = 43.0001
RA_OF_ASC_NODE = 54.7544
ARG_OF_PERICENTER = 272.1594
MEAN_ANOMALY   = 355.8585

EPHEMERIS_TYPE = 0
CLASSIFICATION_TYPE = U
NORAD_CAT_ID   = 66876
ELEMENT_SET_NO = 999
REV_AT_EPOCH   = 320
BSTAR          = -.27097E-1
MEAN_MOTION_DOT = -.2007572E-1
MEAN_MOTION_DDOT = 0

CCSDS_OMM_VERS = 2.0
CREATION_DATE  = 
ORIGINATOR     = 

OBJECT_NAME    = ZQ-3 R/B
OBJECT_ID      = 2025-282A
CENTER_NAME    = EARTH
REF_FRAME      = TEME
TIME_SYSTEM    = UTC
MEAN_ELEMENT_THEORY = SGP/SGP4

EPOCH          = 2025-12-23T18:11:12.742368
MEAN_MOTION    = 14.82080967
ECCENTRICITY   = .0685556
INCLINATION    = 56.9493
RA_OF_ASC_NODE = 14.7741
ARG_OF_PERICENTER = 239.3958
MEAN_ANOMALY   = 113.7744

EPHEMERIS_TYPE = 0
CLASSIFICATION_TYPE = U
NORAD_CAT_ID   = 66877
ELEMENT_SET_NO = 999
REV_AT_EPOCH   = 301
BSTAR          = .18879E-3
MEAN_MOTION_DOT = .1092378E-1
MEAN_MOTION_DDOT = .78754E-5

CCSDS_OMM_VERS = 2.0
CREATION_DATE  = 
ORIGINATOR     = 

OBJECT_NAME    = STARLINK-35866
OBJECT_ID      = 2025-283A
CENTER_NAME    = EARTH
REF_FRAME      = TEME
TIME_SYSTEM    = UTC
MEAN_ELEMENT_THEORY = SGP/SGP4

EPOCH          = 2025-12-23T20:00:01.000224
MEAN_MOTION    = 15.67931447
ECCENTRICITY   = .0001017
INCLINATION    = 53.1592
RA_OF_ASC_NODE = 18.3973
ARG_OF_PERICENTER = 77.6199
MEAN_ANOMALY   = 288.1991

EPHEMERIS_TYPE = 0
CLASSIFICATION_TYPE = U
NORAD_CAT_ID   = 66878
ELEMENT_SET_NO = 999
REV_AT_EPOCH   = 421
BSTAR          = -.19524E-1
MEAN_MOTION_DOT = -.1944347E-1
MEAN_MOTION_DDOT = 0

CCSDS_OMM_VERS = 2.0
CREATION_DATE  = 
ORIGINATOR     = 

OBJECT_NAME    = STARLINK-35749
OBJECT_ID      = 2025-283B
CENTER_NAME    = EARTH
REF_FRAME      = TEME
TIME_SYSTEM    = UTC
MEAN_ELEMENT_THEORY = SGP/SGP4

EPOCH          = 2025-12-23T20:00:01.000224
MEAN_MOTION    = 15.67931160
ECCENTRICITY   = .0001051
INCLINATION    = 53.1590
RA_OF_ASC_NODE = 18.3890
ARG_OF_PERICENTER = 77.1688
MEAN_ANOMALY   = 292.4839

EPHEMERIS_TYPE = 0
CLASSIFICATION_TYPE = U
NORAD_CAT_ID   = 66879
ELEMENT_SET_NO = 999
REV_AT_EPOCH   = 421
BSTAR          = -.19515E-1
MEAN_MOTION_DOT = -.1943604E-1
MEAN_MOTION_DDOT = 0

